{
  "59570": {
    "noradId": "59570",
    "tle": [
      "1 59570C 24076G   26083.85256944 -.00034123  00000+0 -12365-2 0   834",
      "2 59570  43.0028 283.5407 0002057 269.4102 309.6169 15.27580385    11"
    ]
  },
  "59571": {
    "noradId": "59571",
    "tle": [
      "1 59571C 24076H   26083.82965278 -.00021508  00000+0 -77952-3 0   836",
      "2 59571  43.0008 283.0915 0001493 286.4521  46.9786 15.27567950    15"
    ]
  },
  "59572": {
    "noradId": "59572",
    "tle": [
      "1 59572C 24076J   26083.87756944 -.00004828  00000+0 -17487-3 0   833",
      "2 59572  43.0029 276.2550 0001697 276.7697 159.4807 15.27579474    18"
    ]
  },
  "59573": {
    "noradId": "59573",
    "tle": [
      "1 59573C 24076K   26083.89770833 -.00059371  00000+0 -21503-2 0   835",
      "2 59573  43.0012 282.9898 0001617 268.7193 319.0784 15.27609901    11"
    ]
  },
  "59574": {
    "noradId": "59574",
    "tle": [
      "1 59574C 24076L   26083.77548611 -.00079786  00000+0 -28883-2 0   830",
      "2 59574  43.0015 284.1373 0001380 285.1583 165.7535 15.27635785    19"
    ]
  },
  "59575": {
    "noradId": "59575",
    "tle": [
      "1 59575C 24076M   26083.79909722 -.00079511  00000+0 -28791-2 0   831",
      "2 59575  43.0023 280.3121 0001588 286.3822  30.9116 15.27626488    15"
    ]
  },
  "59576": {
    "noradId": "59576",
    "tle": [
      "1 59576C 24076N   26083.87756944 -.00051147  00000+0 -18524-2 0   835",
      "2 59576  43.0024 283.4977 0001755 257.6477  56.5216 15.27605219    17"
    ]
  },
  "59577": {
    "noradId": "59577",
    "tle": [
      "1 59577C 24076P   26083.85187500 -.00039891  00000+0 -14448-2 0   833",
      "2 59577  43.0038 283.4473 0001411 275.4847 328.0405 15.27598560    19"
    ]
  },
  "59578": {
    "noradId": "59578",
    "tle": [
      "1 59578C 24076Q   26083.89284722 -.00043937  00000+0 -15918-2 0   831",
      "2 59578  43.0004 282.7759 0001587 268.4069  31.6966 15.27592192    18"
    ]
  },
  "59579": {
    "noradId": "59579",
    "tle": [
      "1 59579C 24076R   26083.67340278 -.00033220  00000+0 -12023-2 0   835",
      "2 59579  43.0000 284.0677 0001447 250.3504 260.2778 15.27619042    13"
    ]
  },
  "59580": {
    "noradId": "59580",
    "tle": [
      "1 59580C 24076S   26083.92201389 -.00051407  00000+0 -18620-2 0   830",
      "2 59580  43.0009 282.5189 0001566 287.8920 215.2447 15.27602999    10"
    ]
  },
  "59581": {
    "noradId": "59581",
    "tle": [
      "1 59581C 24076T   26083.82340278 -.00060490  00000+0 -21913-2 0   832",
      "2 59581  43.0005 283.3570 0001319 274.0928 285.8502 15.27603562    14"
    ]
  },
  "59582": {
    "noradId": "59582",
    "tle": [
      "1 59582C 24076U   26083.89909722 -.00054006  00000+0 -19563-2 0   839",
      "2 59582  43.0029 283.1335 0001388 288.3997 243.4011 15.27601973    17"
    ]
  },
  "59583": {
    "noradId": "59583",
    "tle": [
      "1 59583C 24076V   26083.64145833 -.00004357  00000+0 -15767-3 0   835",
      "2 59583  42.9979 284.3607 0001813 249.8354  35.3835 15.27607633    18"
    ]
  },
  "59584": {
    "noradId": "59584",
    "tle": [
      "1 59584C 24076W   26083.78937500 -.00081571  00000+0 -29534-2 0   830",
      "2 59584  43.0031 283.8391 0001749 283.7789 328.5184 15.27630670    12"
    ]
  },
  "59585": {
    "noradId": "59585",
    "tle": [
      "1 59585C 24076X   26083.85673611 -.00092571  00000+0 -33531-2 0   833",
      "2 59585  43.0014 283.6815 0001868 266.0988 265.1112 15.27621523    14"
    ]
  },
  "59586": {
    "noradId": "59586",
    "tle": [
      "1 59586C 24076Y   26083.82062500  .00123020  00000+0  36714-2 0   838",
      "2 59586  42.9955 238.5097 0010609 326.0319 344.5401 15.33685217    16"
    ]
  },
  "59601": {
    "noradId": "59601",
    "tle": [
      "1 59601C 24080A   26083.87687500 -.00093074  00000+0 -33718-2 0   837",
      "2 59601  43.0034 312.4274 0001602 275.7230  26.5618 15.27617968    16"
    ]
  },
  "59602": {
    "noradId": "59602",
    "tle": [
      "1 59602C 24080B   26083.88173611 -.00081952  00000+0 -29690-2 0   838",
      "2 59602  43.0027 308.9668 0001398 272.7989  46.4960 15.27612008    17"
    ]
  },
  "59603": {
    "noradId": "59603",
    "tle": [
      "1 59603C 24080C   26083.89145833 -.00092660  00000+0 -33563-2 0   837",
      "2 59603  43.0022 315.7804 0001194 267.0130 125.3017 15.27623424    14"
    ]
  },
  "59604": {
    "noradId": "59604",
    "tle": [
      "1 59604C 24080D   26083.82409722 -.00052111  00000+0 -18877-2 0   839",
      "2 59604  43.0013 308.8813 0001347 265.6301 266.1129 15.27601114    12"
    ]
  },
  "59605": {
    "noradId": "59605",
    "tle": [
      "1 59605C 24080E   26083.89423611 -.00077268  00000+0 -27981-2 0   836",
      "2 59605  43.0027 312.2273 0001313 269.1397 171.1338 15.27622789    12"
    ]
  },
  "59606": {
    "noradId": "59606",
    "tle": [
      "1 59606C 24080F   26083.86368056 -.00094187  00000+0 -34118-2 0   834",
      "2 59606  43.0035 316.0700 0001195 276.4708 266.3066 15.27621927    12"
    ]
  },
  "59607": {
    "noradId": "59607",
    "tle": [
      "1 59607C 24080G   26083.78173611 -.00063957  00000+0 -23159-2 0   831",
      "2 59607  43.0037 316.5854 0001546 267.1185 163.2616 15.27618767    10"
    ]
  },
  "59608": {
    "noradId": "59608",
    "tle": [
      "1 59608C 24080H   26083.89145833 -.00057683  00000+0 -20905-2 0   834",
      "2 59608  43.0012 308.1103 0001494 266.8447  78.5359 15.27587692    11"
    ]
  },
  "59609": {
    "noradId": "59609",
    "tle": [
      "1 59609C 24080J   26083.83729167 -.00084882  00000+0 -30732-2 0   837",
      "2 59609  43.0008 308.4617 0001390 267.0693 118.8279 15.27633454    18"
    ]
  },
  "59610": {
    "noradId": "59610",
    "tle": [
      "1 59610C 24080K   26083.87618056 -.00098421  00000+0 -35656-2 0   831",
      "2 59610  43.0031 308.9281 0001567 269.4787  47.5442 15.27619979    10"
    ]
  },
  "59611": {
    "noradId": "59611",
    "tle": [
      "1 59611C 24080L   26083.86020833 -.00014145  00000+0 -51268-3 0   830",
      "2 59611  43.0025 308.8122 0001053 274.0987  39.8965 15.27564687    10"
    ]
  },
  "59612": {
    "noradId": "59612",
    "tle": [
      "1 59612C 24080M   26083.88729167 -.00076263  00000+0 -27629-2 0   831",
      "2 59612  43.0008 308.4065 0001322 266.2659 302.9558 15.27608812    13"
    ]
  },
  "59613": {
    "noradId": "59613",
    "tle": [
      "1 59613C 24080N   26083.87340278 -.00002280  00000+0 -82565-4 0   833",
      "2 59613  43.0038 316.0909 0001598 272.1249 281.6749 15.27578278    12"
    ]
  },
  "59614": {
    "noradId": "59614",
    "tle": [
      "1 59614C 24080P   26083.83798611 -.00053024  00000+0 -19205-2 0   839",
      "2 59614  43.0021 312.4925 0001269 265.8593 245.9656 15.27604676    11"
    ]
  },
  "59615": {
    "noradId": "59615",
    "tle": [
      "1 59615C 24080Q   26083.86020833  .00102380  00000+0  74826-3 0   836",
      "2 59615  42.9901 299.2901 0027277 274.0246 335.1498 15.71687478    13"
    ]
  },
  "59616": {
    "noradId": "59616",
    "tle": [
      "1 59616C 24080R   26083.92409722 -.00061453  00000+0 -22263-2 0   836",
      "2 59616  43.0018 311.9724 0001155 272.5755   7.5206 15.27603121    16"
    ]
  },
  "59617": {
    "noradId": "59617",
    "tle": [
      "1 59617C 24080S   26083.90048611 -.00033946  00000+0 -12296-2 0   832",
      "2 59617  43.0036 312.3421 0001589 270.3784 140.6037 15.27593633    12"
    ]
  },
  "59618": {
    "noradId": "59618",
    "tle": [
      "1 59618C 24080T   26083.85187500 -.00050794  00000+0 -18397-2 0   836",
      "2 59618  43.0027 316.0513 0001362 265.1997 247.9539 15.27604286    18"
    ]
  },
  "59619": {
    "noradId": "59619",
    "tle": [
      "1 59619C 24080U   26083.92131944 -.00064797  00000+0 -23472-2 0   834",
      "2 59619  43.0031 315.7101 0001424 269.1235 245.1477 15.27607510    15"
    ]
  },
  "59621": {
    "noradId": "59621",
    "tle": [
      "1 59621C 24080W   26083.82062500 -.00065847  00000+0 -23849-2 0   832",
      "2 59621  43.0010 308.6279 0001406 270.4380 355.3926 15.27611340    17"
    ]
  },
  "59622": {
    "noradId": "59622",
    "tle": [
      "1 59622C 24080X   26083.59006944  .00041612  00000+0  15075-2 0   831",
      "2 59622  43.0031 310.4187 0001234 247.7859 343.5099 15.27550057    14"
    ]
  },
  "59623": {
    "noradId": "59623",
    "tle": [
      "1 59623C 24080Y   26083.92131944 -.00096306  00000+0 -34894-2 0   830",
      "2 59623  43.0034 312.2744 0001564 271.7665 232.7812 15.27615151    14"
    ]
  },
  "59631": {
    "noradId": "59631",
    "tle": [
      "1 59631C 24082A   26083.85604167  .00047584  00000+0  17225-2 0   836",
      "2 59631  43.0038  53.8237 0001349 263.9505 156.3383 15.27572940    11"
    ]
  },
  "59632": {
    "noradId": "59632",
    "tle": [
      "1 59632C 24082B   26083.86090278  .00048714  00000+0  17627-2 0   832",
      "2 59632  43.0041  40.0177 0001714 266.9154  21.2012 15.27586383    11"
    ]
  },
  "59633": {
    "noradId": "59633",
    "tle": [
      "1 59633C 24082C   26083.81854167  .00042741  00000+0  15470-2 0   831",
      "2 59633  43.0012  47.2505 0001204 267.4669 244.4363 15.27579686    11"
    ]
  },
  "59634": {
    "noradId": "59634",
    "tle": [
      "1 59634C 24082D   26083.88659722  .00038607  00000+0  13974-2 0   832",
      "2 59634  43.0005  53.9054 0001713 286.5145 195.8055 15.27581848    13"
    ]
  },
  "59635": {
    "noradId": "59635",
    "tle": [
      "1 59635C 24082E   26083.91506944  .00030587  00000+0  11071-2 0   839",
      "2 59635  43.0044  54.1653 0001208 261.9340 200.3615 15.27585528    11"
    ]
  },
  "59636": {
    "noradId": "59636",
    "tle": [
      "1 59636C 24082F   26083.58381944 -.00147230  00000+0 -53281-2 0   839",
      "2 59636  43.0034  55.9359 0001036 268.1927 212.8151 15.27680095    10"
    ]
  }
}